CSS (TIANHE)            
1 48274U 21035A   26190.25368005  .00001018  00000+0  17467-4 0  9991
2 48274  41.4687 187.8435 0002664 281.4115  78.6423 15.58018130296619
